FENGYUN 1C DEB          
1 32223U 99025CVV 17345.37678420  .00000767  00000-0  46985-3 0  9999
2 32223  99.0246  38.0618 0055539 291.2796 127.6543 14.08151889229807
